[
    {
        "Altitude(m)": 710041.7701477206,
        "Argument of Periapsis(deg)": 0.004556048474650827,
        "Eccentricity": 0.0,
        "Inclination(deg)": 45.0,
        "Latitude(deg)": -25.57015535366521,
        "Longitude(deg)": -141.87259803161047,
        "Mean Anomaly(deg)": 217.34058665899235,
        "RAAN(deg)": 109.99569922341672,
        "Satellite Name": "Constellation 1 497",
        "Satellite Number": 497,
        "Semi-Major Axis(m)": 7083131.272910544,
        "Time(s)": 76
    },
    {
        "Altitude(m)": 710055.58691177,
        "Argument of Periapsis(deg)": 0.004615996480896233,
        "Eccentricity": 0.0,
        "Inclination(deg)": 45.0,
        "Latitude(deg)": -25.608030857949878,
        "Longitude(deg)": -141.82416244358987,
        "Mean Anomaly(deg)": 217.40128779924225,
        "RAAN(deg)": 109.99564263425115,
        "Satellite Name": "Constellation 1 497",
        "Satellite Number": 497,
        "Semi-Major Axis(m)": 7083131.272910544,
        "Time(s)": 77
    },
    {
        "Altitude(m)": 710069.4053313254,
        "Argument of Periapsis(deg)": 0.004675944487141638,
        "Eccentricity": 0.0,
        "Inclination(deg)": 45.0,
        "Latitude(deg)": -25.645887187752038,
        "Longitude(deg)": -141.775693882318,
        "Mean Anomaly(deg)": 217.4619889394922,
        "RAAN(deg)": 109.99558604508557,
        "Satellite Name": "Constellation 1 497",
        "Satellite Number": 497,
        "Semi-Major Axis(m)": 7083131.272910544,
        "Time(s)": 78
    },
    {
        "Altitude(m)": 710083.2253591956,
        "Argument of Periapsis(deg)": 0.004735892493387044,
        "Eccentricity": 0.0,
        "Inclination(deg)": 45.0,
        "Latitude(deg)": -25.683724299399763,
        "Longitude(deg)": -141.7271922875993,
        "Mean Anomaly(deg)": 217.522690079742,
        "RAAN(deg)": 109.99552945592002,
        "Satellite Name": "Constellation 1 497",
        "Satellite Number": 497,
        "Semi-Major Axis(m)": 7083131.272910544,
        "Time(s)": 79
    },
    {
        "Altitude(m)": 710097.0469481865,
        "Argument of Periapsis(deg)": 0.004795840499632449,
        "Eccentricity": 0.0,
        "Inclination(deg)": 45.0,
        "Latitude(deg)": -25.721542149157553,
        "Longitude(deg)": -141.6786575992388,
        "Mean Anomaly(deg)": 217.58339121999194,
        "RAAN(deg)": 109.99547286675445,
        "Satellite Name": "Constellation 1 497",
        "Satellite Number": 497,
        "Semi-Major Axis(m)": 7083131.272910544,
        "Time(s)": 80
    },
    {
        "Altitude(m)": 710110.8700510708,
        "Argument of Periapsis(deg)": 0.004855788505877855,
        "Eccentricity": 0.0,
        "Inclination(deg)": 45.0,
        "Latitude(deg)": -25.759340693226303,
        "Longitude(deg)": -141.6300897570417,
        "Mean Anomaly(deg)": 217.6440923602418,
        "RAAN(deg)": 109.99541627758887,
        "Satellite Name": "Constellation 1 497",
        "Satellite Number": 497,
        "Semi-Major Axis(m)": 7083131.272910544,
        "Time(s)": 81
    },
    {
        "Altitude(m)": 710124.6946206187,
        "Argument of Periapsis(deg)": 0.00491573651212326,
        "Eccentricity": 0.0,
        "Inclination(deg)": 45.0,
        "Latitude(deg)": -25.79711988774286,
        "Longitude(deg)": -141.5814888689113,
        "Mean Anomaly(deg)": 217.70479350049175,
        "RAAN(deg)": 109.9953596884233,
        "Satellite Name": "Constellation 1 497",
        "Satellite Number": 497,
        "Semi-Major Axis(m)": 7083131.272910544,
        "Time(s)": 82
    },
    {
        "Altitude(m)": 710138.520609567,
        "Argument of Periapsis(deg)": 0.004975684518368666,
        "Eccentricity": 0.0,
        "Inclination(deg)": 45.0,
        "Latitude(deg)": -25.834879688781157,
        "Longitude(deg)": -141.53285453846055,
        "Mean Anomaly(deg)": 217.76549464074162,
        "RAAN(deg)": 109.99530309925773,
        "Satellite Name": "Constellation 1 497",
        "Satellite Number": 497,
        "Semi-Major Axis(m)": 7083131.272910544,
        "Time(s)": 83
    },
    {
        "Altitude(m)": 710152.3479706448,
        "Argument of Periapsis(deg)": 0.005035632524614072,
        "Eccentricity": 0.0,
        "Inclination(deg)": 45.0,
        "Latitude(deg)": -25.872620052350424,
        "Longitude(deg)": -141.4841868735953,
        "Mean Anomaly(deg)": 217.8261957809915,
        "RAAN(deg)": 109.99524651009217,
        "Satellite Name": "Constellation 1 497",
        "Satellite Number": 497,
        "Semi-Major Axis(m)": 7083131.272910544,
        "Time(s)": 84
    },
    {
        "Altitude(m)": 710166.1766565599,
        "Argument of Periapsis(deg)": 0.0050955805308594785,
        "Eccentricity": 0.0,
        "Inclination(deg)": 45.0,
        "Latitude(deg)": -25.91034093439631,
        "Longitude(deg)": -141.43548581412583,
        "Mean Anomaly(deg)": 217.8868969212415,
        "RAAN(deg)": 109.9951899209266,
        "Satellite Name": "Constellation 1 497",
        "Satellite Number": 497,
        "Semi-Major Axis(m)": 7083131.272910544,
        "Time(s)": 85
    },
    {
        "Altitude(m)": 710180.0066200033,
        "Argument of Periapsis(deg)": 0.005155528537104883,
        "Eccentricity": 0.0,
        "Inclination(deg)": 45.0,
        "Latitude(deg)": -25.948042290800142,
        "Longitude(deg)": -141.38675129986495,
        "Mean Anomaly(deg)": 217.94759806149136,
        "RAAN(deg)": 109.99513333176102,
        "Satellite Name": "Constellation 1 497",
        "Satellite Number": 497,
        "Semi-Major Axis(m)": 7083131.272910544,
        "Time(s)": 86
    },
    {
        "Altitude(m)": 710193.8378136551,
        "Argument of Periapsis(deg)": 0.0052154765433502885,
        "Eccentricity": 0.0,
        "Inclination(deg)": 45.0,
        "Latitude(deg)": -25.98572407737914,
        "Longitude(deg)": -141.33798327062772,
        "Mean Anomaly(deg)": 218.00829920174127,
        "RAAN(deg)": 109.99507674259546,
        "Satellite Name": "Constellation 1 497",
        "Satellite Number": 497,
        "Semi-Major Axis(m)": 7083131.272910544,
        "Time(s)": 87
    },
    {
        "Altitude(m)": 710207.6701901637,
        "Argument of Periapsis(deg)": 0.005275424549595694,
        "Eccentricity": 0.0,
        "Inclination(deg)": 45.0,
        "Latitude(deg)": -26.023386249886347,
        "Longitude(deg)": -141.2891816662321,
        "Mean Anomaly(deg)": 218.06900034199109,
        "RAAN(deg)": 109.99502015342988,
        "Satellite Name": "Constellation 1 497",
        "Satellite Number": 497,
        "Semi-Major Axis(m)": 7083131.272910544,
        "Time(s)": 88
    },
    {
        "Altitude(m)": 710221.5037021758,
        "Argument of Periapsis(deg)": 0.0053353725558411,
        "Eccentricity": 0.0,
        "Inclination(deg)": 45.0,
        "Latitude(deg)": -26.061028764010132,
        "Longitude(deg)": -141.2403465945964,
        "Mean Anomaly(deg)": 218.12970148224105,
        "RAAN(deg)": 109.99496356426431,
        "Satellite Name": "Constellation 1 497",
        "Satellite Number": 497,
        "Semi-Major Axis(m)": 7083131.272910544,
        "Time(s)": 89
    },
    {
        "Altitude(m)": 710235.3383023151,
        "Argument of Periapsis(deg)": 0.005395320562086505,
        "Eccentricity": 0.0,
        "Inclination(deg)": 45.0,
        "Latitude(deg)": -26.09865157537526,
        "Longitude(deg)": -141.19147765935074,
        "Mean Anomaly(deg)": 218.19040262249095,
        "RAAN(deg)": 109.99490697509873,
        "Satellite Name": "Constellation 1 497",
        "Satellite Number": 497,
        "Semi-Major Axis(m)": 7083131.272910544,
        "Time(s)": 90
    },
    {
        "Altitude(m)": 710249.1739431918,
        "Argument of Periapsis(deg)": 0.00545526856833191,
        "Eccentricity": 0.0,
        "Inclination(deg)": 45.0,
        "Latitude(deg)": -26.13625463954099,
        "Longitude(deg)": -141.1425749684211,
        "Mean Anomaly(deg)": 218.2511037627408,
        "RAAN(deg)": 109.99485038593318,
        "Satellite Name": "Constellation 1 497",
        "Satellite Number": 497,
        "Semi-Major Axis(m)": 7083131.272910544,
        "Time(s)": 91
    },
    {
        "Altitude(m)": 710263.0105773968,
        "Argument of Periapsis(deg)": 0.005515216574577317,
        "Eccentricity": 0.0,
        "Inclination(deg)": 45.0,
        "Latitude(deg)": -26.173837912002522,
        "Longitude(deg)": -141.0936384616398,
        "Mean Anomaly(deg)": 218.31180490299081,
        "RAAN(deg)": 109.99479379676761,
        "Satellite Name": "Constellation 1 497",
        "Satellite Number": 497,
        "Semi-Major Axis(m)": 7083131.272910544,
        "Time(s)": 92
    },
    {
        "Altitude(m)": 710276.8481575022,
        "Argument of Periapsis(deg)": 0.005575164580822722,
        "Eccentricity": 0.0,
        "Inclination(deg)": 45.0,
        "Latitude(deg)": -26.211401348189845,
        "Longitude(deg)": -141.0446680788448,
        "Mean Anomaly(deg)": 218.3725060432406,
        "RAAN(deg)": 109.99473720760203,
        "Satellite Name": "Constellation 1 497",
        "Satellite Number": 497,
        "Semi-Major Axis(m)": 7083131.272910544,
        "Time(s)": 93
    },
    {
        "Altitude(m)": 710290.6866360719,
        "Argument of Periapsis(deg)": 0.005635112587068129,
        "Eccentricity": 0.0,
        "Inclination(deg)": 45.0,
        "Latitude(deg)": -26.248944903468605,
        "Longitude(deg)": -140.99566375987797,
        "Mean Anomaly(deg)": 218.4332071834905,
        "RAAN(deg)": 109.99468061843646,
        "Satellite Name": "Constellation 1 497",
        "Satellite Number": 497,
        "Semi-Major Axis(m)": 7083131.272910544,
        "Time(s)": 94
    }
]